{
  "norad_id": 60127,
  "name": "STARLINK-31840",
  "history": [
    {
      "epoch": "2026-03-28T21:04:10.903008",
      "apogee_km": 475.96877096810385,
      "perigee_km": 474.4859770521434,
      "latitude_deg": 29.972819551632792,
      "longitude_deg": -83.02121888007969,
      "semi_major_axis_km": 6853.364374010123,
      "eccentricity": 0.00010818,
      "inclination_deg": 53.1612,
      "raan_deg": 297.6321,
      "arg_perigee_deg": 92.7931,
      "mean_anomaly_deg": 267.3193,
      "mean_motion_rev_day": 15.30195879
    }
  ]
}